{"type": "FeatureCollection", "features": [ {"type": "Feature", "properties": {"norad_id": 32364, "name": "FENGYUN 1C DEB", "group": "fengyun-1c-debris", "lat": -36.81294365974005, "lon": 4.292521780536751, "alt_km": 784.7172138237638, "timestamp": "2025-12-17T23:38:07.140276+00:00", "meta": {"OBJECT_NAME": "FENGYUN 1C DEB", "OBJECT_ID": "1999-025CZH", "EPOCH": "2025-11-29T08:05:37.624992", "MEAN_MOTION": 14.14317962, "ECCENTRICITY": 0.01349396, "INCLINATION": 98.2918, "RA_OF_ASC_NODE": 173.2369, "ARG_OF_PERICENTER": 222.8285, "MEAN_ANOMALY": 136.2316, "EPHEMERIS_TYPE": 0, "CLASSIFICATION_TYPE": "U", "NORAD_CAT_ID": 32364, "ELEMENT_SET_NO": 999, "REV_AT_EPOCH": 63519, "BSTAR": 0.0022712328, "MEAN_MOTION_DOT": 4.699e-05, "MEAN_MOTION_DDOT": 0}, "tle": {"line1": "1 32364U 99025CZH 25333.33724103  .00004699  00000+0  22712-2 0  9995", "line2": "2 32364  98.2918 173.2369 0134939 222.8285 136.2316 14.14317962635190"}}, "geometry": {"type": "Point", "coordinates": [4.292521780536751, -36.81294365974005]}}, {"type": "Feature", "properties": {"norad_id": 32366, "name": "FENGYUN 1C DEB", "group": "fengyun-1c-debris", "lat": -77.88278988512684, "lon": -100.52929303353197, "alt_km": 756.7497682856692, "timestamp": "2025-12-17T23:38:07.140287+00:00", "meta": {"OBJECT_NAME": "FENGYUN 1C DEB", "OBJECT_ID": "1999-025CZK", "EPOCH": "2025-12-17T13:54:40.935744", "MEAN_MOTION": 14.13865958, "ECCENTRICITY": 0.0135504, "INCLINATION": 96.7755, "RA_OF_ASC_NODE": 112.7867, "ARG_OF_PERICENTER": 252.3164, "MEAN_ANOMALY": 106.3182, "EPHEMERIS_TYPE": 0, "CLASSIFICATION_TYPE": "U", "NORAD_CAT_ID": 32366, "ELEMENT_SET_NO": 999, "REV_AT_EPOCH": 93272, "BSTAR": 0.0013067056, "MEAN_MOTION_DOT": 2.675e-05, "MEAN_MOTION_DDOT": 0}, "tle": {"line1": "1 32366U 99025CZK 25351.57964046  .00002675  00000+0  13067-2 0  9990", "line2": "2 32366  96.7755 112.7867 0135504 252.3164 106.3182 14.13865958932728"}}, "geometry": {"type": "Point", "coordinates": [-100.52929303353197, -77.88278988512684]}}, {"type": "Feature", "properties": {"norad_id": 32372, "name": "FENGYUN 1C DEB", "group": "fengyun-1c-debris", "lat": -34.81801928004745, "lon": -123.25120454476642, "alt_km": 956.8793343627149, "timestamp": "2025-12-17T23:38:07.140297+00:00", "meta": {"OBJECT_NAME": "FENGYUN 1C DEB", "OBJECT_ID": "1999-025CZR", "EPOCH": "2025-12-11T11:21:44.110080", "MEAN_MOTION": 13.35367723, "ECCENTRICITY": 0.04586798, "INCLINATION": 97.3163, "RA_OF_ASC_NODE": 226.9338, "ARG_OF_PERICENTER": 43.4714, "MEAN_ANOMALY": 320.164, "EPHEMERIS_TYPE": 0, "CLASSIFICATION_TYPE": "U", "NORAD_CAT_ID": 32372, "ELEMENT_SET_NO": 999, "REV_AT_EPOCH": 60123, "BSTAR": 0.003543376, "MEAN_MOTION_DOT": 3.249e-05, "MEAN_MOTION_DDOT": 0}, "tle": {"line1": "1 32372U 99025CZR 25345.47342720  .00003249  00000+0  35434-2 0  9998", "line2": "2 32372  97.3163 226.9338 0458679  43.4714 320.1640 13.35367723601231"}}, "geometry": {"type": "Point", "coordinates": [-123.25120454476642, -34.81801928004745]}}, {"type": "Feature", "properties": {"norad_id": 32409, "name": "FENGYUN 1C DEB", "group": "fengyun-1c-debris", "lat": 32.89523378429083, "lon": -16.946142782321996, "alt_km": 611.3216398670129, "timestamp": "2025-12-17T23:38:07.140307+00:00", "meta": {"OBJECT_NAME": "FENGYUN 1C DEB", "OBJECT_ID": "1999-025CZV", "EPOCH": "2025-12-07T05:07:54.004800", "MEAN_MOTION": 14.7602828, "ECCENTRICITY": 0.00392582, "INCLINATION": 99.5677, "RA_OF_ASC_NODE": 144.053, "ARG_OF_PERICENTER": 169.8692, "MEAN_ANOMALY": 6.8268, "EPHEMERIS_TYPE": 0, "CLASSIFICATION_TYPE": "U", "NORAD_CAT_ID": 32409, "ELEMENT_SET_NO": 999, "REV_AT_EPOCH": 58757, "BSTAR": 0.00306852, "MEAN_MOTION_DOT": 0.00021404, "MEAN_MOTION_DDOT": 0}, "tle": {"line1": "1 32409U 99025CZV 25341.21381950  .00021404  00000+0  30685-2 0  9991", "line2": "2 32409  99.5677 144.0530 0039258 169.8692   6.8268 14.76028280587578"}}, "geometry": {"type": "Point", "coordinates": [-16.946142782321996, 32.89523378429083]}}, {"type": "Feature", "properties": {"norad_id": 32411, "name": "FENGYUN 1C DEB", "group": "fengyun-1c-debris", "lat": -69.778042474994, "lon": -66.64466655282915, "alt_km": 840.0447592178134, "timestamp": "2025-12-17T23:38:07.140318+00:00", "meta": {"OBJECT_NAME": "FENGYUN 1C DEB", "OBJECT_ID": "1999-025CZX", "EPOCH": "2025-12-16T00:16:33.809088", "MEAN_MOTION": 14.09815974, "ECCENTRICITY": 0.01241346, "INCLINATION": 98.43, "RA_OF_ASC_NODE": 267.7666, "ARG_OF_PERICENTER": 7.1791, "MEAN_ANOMALY": 353.1122, "EPHEMERIS_TYPE": 0, "CLASSIFICATION_TYPE": "U", "NORAD_CAT_ID": 32411, "ELEMENT_SET_NO": 999, "REV_AT_EPOCH": 65860, "BSTAR": 0.00048847863, "MEAN_MOTION_DOT": 8.82e-06, "MEAN_MOTION_DDOT": 0}, "tle": {"line1": "1 32411U 99025CZX 25350.01150242  .00000882  00000+0  48848-3 0  9998", "line2": "2 32411  98.4300 267.7666 0124134   7.1791 353.1122 14.09815974658607"}}, "geometry": {"type": "Point", "coordinates": [-66.64466655282915, -69.778042474994]}}, {"type": "Feature", "properties": {"norad_id": 32414, "name": "FENGYUN 1C DEB", "group": "fengyun-1c-debris", "lat": -11.318580411148133, "lon": -119.15420067277181, "alt_km": 863.3060449470486, "timestamp": "2025-12-17T23:38:07.140328+00:00", "meta": {"OBJECT_NAME": "FENGYUN 1C DEB", "OBJECT_ID": "1999-025DAA", "EPOCH": "2025-12-16T01:01:28.621632", "MEAN_MOTION": 14.18429386, "ECCENTRICITY": 0.00448774, "INCLINATION": 98.8582, "RA_OF_ASC_NODE": 60.696, "ARG_OF_PERICENTER": 348.4132, "MEAN_ANOMALY": 11.6007, "EPHEMERIS_TYPE": 0, "CLASSIFICATION_TYPE": "U", "NORAD_CAT_ID": 32414, "ELEMENT_SET_NO": 999, "REV_AT_EPOCH": 93779, "BSTAR": 0.0010424862, "MEAN_MOTION_DOT": 2.129e-05, "MEAN_MOTION_DDOT": 0}, "tle": {"line1": "1 32414U 99025DAA 25350.04269238  .00002129  00000+0  10425-2 0  9995", "line2": "2 32414  98.8582  60.6960 0044877 348.4132  11.6007 14.18429386937794"}}, "geometry": {"type": "Point", "coordinates": [-119.15420067277181, -11.318580411148133]}}, {"type": "Feature", "properties": {"norad_id": 32419, "name": "FENGYUN 1C DEB", "group": "fengyun-1c-debris", "lat": -9.448101442769971, "lon": 105.32358453407285, "alt_km": 1068.460328211675, "timestamp": "2025-12-17T23:38:07.140338+00:00", "meta": {"OBJECT_NAME": "FENGYUN 1C DEB", "OBJECT_ID": "1999-025DAF", "EPOCH": "2025-12-11T15:09:56.013984", "MEAN_MOTION": 14.09908253, "ECCENTRICITY": 0.02839501, "INCLINATION": 97.9459, "RA_OF_ASC_NODE": 281.0334, "ARG_OF_PERICENTER": 32.1797, "MEAN_ANOMALY": 329.6358, "EPHEMERIS_TYPE": 0, "CLASSIFICATION_TYPE": "U", "NORAD_CAT_ID": 32419, "ELEMENT_SET_NO": 999, "REV_AT_EPOCH": 63555, "BSTAR": 0.0013854285, "MEAN_MOTION_DOT": 3.513e-05, "MEAN_MOTION_DDOT": 0}, "tle": {"line1": "1 32419U 99025DAF 25345.63189831  .00003513  00000+0  13854-2 0  9996", "line2": "2 32419  97.9459 281.0334 0283950  32.1797 329.6358 14.09908253635552"}}, "geometry": {"type": "Point", "coordinates": [105.32358453407285, -9.448101442769971]}}, {"type": "Feature", "properties": {"norad_id": 32422, "name": "FENGYUN 1C DEB", "group": "fengyun-1c-debris", "lat": 54.69507101713758, "lon": -46.0471727176229, "alt_km": 1088.0977620067142, "timestamp": "2025-12-17T23:38:07.140348+00:00", "meta": {"OBJECT_NAME": "FENGYUN 1C DEB", "OBJECT_ID": "1999-025DAJ", "EPOCH": "2025-12-10T15:48:54.548352", "MEAN_MOTION": 13.98002768, "ECCENTRICITY": 0.0298224, "INCLINATION": 97.8401, "RA_OF_ASC_NODE": 116.4609, "ARG_OF_PERICENTER": 298.6669, "MEAN_ANOMALY": 58.4812, "EPHEMERIS_TYPE": 0, "CLASSIFICATION_TYPE": "U", "NORAD_CAT_ID": 32422, "ELEMENT_SET_NO": 999, "REV_AT_EPOCH": 63104, "BSTAR": 0.00051946, "MEAN_MOTION_DOT": 1.039e-05, "MEAN_MOTION_DDOT": 0}, "tle": {"line1": "1 32422U 99025DAJ 25344.65896468  .00001039  00000+0  51946-3 0  9998", "line2": "2 32422  97.8401 116.4609 0298224 298.6669  58.4812 13.98002768631040"}}, "geometry": {"type": "Point", "coordinates": [-46.0471727176229, 54.69507101713758]}}, {"type": "Feature", "properties": {"norad_id": 32425, "name": "FENGYUN 1C DEB", "group": "fengyun-1c-debris", "lat": 60.25282943339726, "lon": 127.16824545581751, "alt_km": 951.6290055466461, "timestamp": "2025-12-17T23:38:07.140358+00:00", "meta": {"OBJECT_NAME": "FENGYUN 1C DEB", "OBJECT_ID": "1999-025DAM", "EPOCH": "2025-12-12T16:13:12.115488", "MEAN_MOTION": 14.16741504, "ECCENTRICITY": 0.02316015, "INCLINATION": 96.7012, "RA_OF_ASC_NODE": 135.0318, "ARG_OF_PERICENTER": 299.6477, "MEAN_ANOMALY": 58.1818, "EPHEMERIS_TYPE": 0, "CLASSIFICATION_TYPE": "U", "NORAD_CAT_ID": 32425, "ELEMENT_SET_NO": 999, "REV_AT_EPOCH": 69534, "BSTAR": 0.00075748036, "MEAN_MOTION_DOT": 1.938e-05, "MEAN_MOTION_DDOT": 0}, "tle": {"line1": "1 32425U 99025DAM 25346.67583467  .00001938  00000+0  75748-3 0  9991", "line2": "2 32425  96.7012 135.0318 0231601 299.6477  58.1818 14.16741504695342"}}, "geometry": {"type": "Point", "coordinates": [127.16824545581751, 60.25282943339726]}}, {"type": "Feature", "properties": {"norad_id": 32430, "name": "FENGYUN 1C DEB", "group": "fengyun-1c-debris", "lat": 28.402229833467096, "lon": 11.485476233493502, "alt_km": 1177.480141526531, "timestamp": "2025-12-17T23:38:07.140369+00:00", "meta": {"OBJECT_NAME": "FENGYUN 1C DEB", "OBJECT_ID": "1999-025DAS", "EPOCH": "2025-12-16T07:10:52.270176", "MEAN_MOTION": 13.70149446, "ECCENTRICITY": 0.03697498, "INCLINATION": 98.6973, "RA_OF_ASC_NODE": 14.7052, "ARG_OF_PERICENTER": 260.516, "MEAN_ANOMALY": 95.4026, "EPHEMERIS_TYPE": 0, "CLASSIFICATION_TYPE": "U", "NORAD_CAT_ID": 32430, "ELEMENT_SET_NO": 999, "REV_AT_EPOCH": 91252, "BSTAR": 0.0015817232, "MEAN_MOTION_DOT": 2.216e-05, "MEAN_MOTION_DDOT": 0}, "tle": {"line1": "1 32430U 99025DAS 25350.29921609  .00002216  00000+0  15817-2 0  9994", "line2": "2 32430  98.6973  14.7052 0369749 260.5160  95.4026 13.70149446912527"}}, "geometry": {"type": "Point", "coordinates": [11.485476233493502, 28.402229833467096]}}]}